H1 CPF  1  DGF 2022 06 21 01  6721 larets     NONE      
H2   304206 5557    27944 2022 06 10 00 00 00 2022 06 17 00 00 00    30 1 1  0 0 0
H5  0.0650
H9
10 0 59742  79200.000000  0       1356796.359       4194985.811      -5513922.600
10 0 59742  79230.000000  0       1467341.081       4336787.194      -5374120.374
10 0 59742  79260.000000  0       1577010.542       4473717.581      -5228838.884
10 0 59742  79290.000000  0       1685671.799       4605641.552      -5078225.156
10 0 59742  79320.000000  0       1793192.308       4732429.283      -4922431.720
10 0 59742  79350.000000  0       1899440.078       4853956.681      -4761616.451
10 0 59742  79380.000000  0       2004283.837       4970105.508      -4595942.420
10 0 59742  79410.000000  0       2107593.190       5080763.509      -4425577.730
10 0 59742  79440.000000  0       2209238.781       5185824.522      -4250695.354
10 0 59742  79470.000000  0       2309092.451       5285188.594      -4071472.958
10 0 59742  79500.000000  0       2407027.406       5378762.084      -3888092.732
10 0 59742  79530.000000  0       2502918.369       5466457.759      -3700741.200
10 0 59742  79560.000000  0       2596641.747       5548194.887      -3509609.038
10 0 59742  79590.000000  0       2688075.785       5623899.318      -3314890.875
10 0 59742  79620.000000  0       2777100.727       5693503.560      -3116785.100
10 0 59742  79650.000000  0       2863598.968       5756946.847      -2915493.652
10 0 59742  79680.000000  0       2947455.213       5814175.196      -2711221.819
10 0 59742  79710.000000  0       3028556.625       5865141.463      -2504178.022
10 0 59742  79740.000000  0       3106792.977       5909805.384      -2294573.603
10 0 59742  79770.000000  0       3182056.797       5948133.612      -2082622.601
10 0 59742  79800.000000  0       3254243.516       5980099.748      -1868541.535
10 0 59742  79830.000000  0       3323251.604       6005684.359      -1652549.167
10 0 59742  79860.000000  0       3388982.711       6024874.988      -1434866.281
10 0 59742  79890.000000  0       3451341.803       6037666.158      -1215715.446
10 0 59742  79920.000000  0       3510237.288       6044059.366       -995320.784
10 0 59742  79950.000000  0       3565581.146       6044063.069       -773907.734
10 0 59742  79980.000000  0       3617289.052       6037692.665       -551702.811
10 0 59742  80010.000000  0       3665280.493       6024970.458       -328933.370
10 0 59742  80040.000000  0       3709478.885       6005925.625       -105827.363
10 0 59742  80070.000000  0       3749811.678       5980594.162        117386.899
10 0 59742  80100.000000  0       3786210.467       5949018.837        340480.991
10 0 59742  80130.000000  0       3818611.088       5911249.120        563226.613
10 0 59742  80160.000000  0       3846953.718       5867341.115        785395.829
10 0 59742  80190.000000  0       3871182.964       5817357.483       1006761.310
10 0 59742  80220.000000  0       3891247.947       5761367.353       1227096.575
10 0 59742  80250.000000  0       3907102.383       5699446.230       1446176.225
10 0 59742  80280.000000  0       3918704.655       5631675.894       1663776.183
10 0 59742  80310.000000  0       3926017.884       5558144.301       1879673.926
10 0 59742  80340.000000  0       3929009.988       5478945.465       2093648.725
10 0 59742  80370.000000  0       3927653.747       5394179.343       2305481.880
10 0 59742  80400.000000  0       3921926.848       5303951.697       2514956.956
10 0 59742  80430.000000  0       3911811.931       5208373.953       2721860.011
10 0 59742  80460.000000  0       3897296.626       5107563.058       2925979.809
10 0 59742  80490.000000  0       3878373.579       5001641.329       3127108.044
10 0 59742  80520.000000  0       3855040.487       4890736.301       3325039.544
10 0 59742  80550.000000  0       3827300.110       4774980.568       3519572.488
10 0 59742  80580.000000  0       3795160.295       4654511.627       3710508.608
10 0 59742  80610.000000  0       3758633.989       4529471.704       3897653.399
10 0 59742  80640.000000  0       3717739.237       4400007.581       4080816.315
10 0 59742  80670.000000  0       3672499.183       4266270.422       4259810.970
10 0 59742  80700.000000  0       3622942.055       4128415.587       4434455.329
10 0 59742  80730.000000  0       3569101.140       3986602.443       4604571.895
10 0 59742  80760.000000  0       3511014.763       3840994.178       4769987.879
10 0 59742  80790.000000  0       3448726.252       3691757.599       4930535.376
10 0 59742  80820.000000  0       3382283.912       3539062.939       5086051.530
10 0 59742  80850.000000  0       3311740.980       3383083.652       5236378.694
10 0 59742  80880.000000  0       3237155.579       3223996.209       5381364.578
10 0 59742  80910.000000  0       3158590.672       3061979.896       5520862.393
10 0 59742  80940.000000  0       3076114.007       2897216.611       5654730.996
10 0 59742  80970.000000  0       2989798.053       2729890.660       5782835.029
10 0 59742  81000.000000  0       2899719.940       2560188.542       5905045.046
10 0 59742  81030.000000  0       2805961.382       2388298.739       6021237.645
10 0 59742  81060.000000  0       2708608.603       2214411.504       6131295.580
10 0 59742  81090.000000  0       2607752.249       2038718.645       6235107.877
10 0 59742  81120.000000  0       2503487.300       1861413.313       6332569.934
10 0 59742  81150.000000  0       2395912.981       1682689.786       6423583.617
10 0 59742  81180.000000  0       2285132.662       1502743.257       6508057.353
10 0 59742  81210.000000  0       2171253.757       1321769.620       6585906.211
10 0 59742  81240.000000  0       2054387.616       1139965.259       6657051.984
10 0 59742  81270.000000  0       1934649.416        957526.838       6721423.253
10 0 59742  81300.000000  0       1812158.044        774651.087       6778955.457
10 0 59742  81330.000000  0       1687035.977        591534.599       6829590.952
10 0 59742  81360.000000  0       1559409.163        408373.616       6873279.062
10 0 59742  81390.000000  0       1429406.894        225363.827       6909976.128
10 0 59742  81420.000000  0       1297161.672         42700.154       6939645.553
10 0 59742  81450.000000  0       1162809.075       -139423.453       6962257.834
10 0 59742  81480.000000  0       1026487.616       -320814.224       6977790.584
10 0 59742  81510.000000  0        888338.602       -501280.773       6986228.548
10 0 59742  81540.000000  0        748505.991       -680633.290       6987563.619
10 0 59742  81570.000000  0        607136.239       -858683.744       6981794.842
10 0 59742  81600.000000  0        464378.147      -1035246.074       6968928.417
10 0 59742  81630.000000  0        320382.706      -1210136.385       6948977.690
10 0 59742  81660.000000  0        175302.941      -1383173.136       6921963.134
10 0 59742  81690.000000  0         29293.745      -1554177.328       6887912.335
10 0 59742  81720.000000  0       -117488.279      -1722972.686       6846859.960
10 0 59742  81750.000000  0       -264884.993      -1889385.843       6798847.724
10 0 59742  81780.000000  0       -412736.884      -2053246.513       6743924.346
10 0 59742  81810.000000  0       -560883.240      -2214387.664       6682145.504
10 0 59742  81840.000000  0       -709162.317      -2372645.690       6613573.776
10 0 59742  81870.000000  0       -857411.516      -2527860.570       6538278.580
10 0 59742  81900.000000  0      -1005467.548      -2679876.029       6456336.110
10 0 59742  81930.000000  0      -1153166.619      -2828539.698       6367829.265
10 0 59742  81960.000000  0      -1300344.601      -2973703.261       6272847.576
10 0 59742  81990.000000  0      -1446837.216      -3115222.609       6171487.119
10 0 59742  82020.000000  0      -1592480.220      -3252957.986       6063850.427
10 0 59742  82050.000000  0      -1737109.583      -3386774.126       5950046.394
10 0 59742  82080.000000  0      -1880561.673      -3516540.388       5830190.172
10 0 59742  82110.000000  0      -2022673.445      -3642130.890       5704403.064
10 0 59742  82140.000000  0      -2163282.623      -3763424.637       5572812.407
10 0 59742  82170.000000  0      -2302227.891      -3880305.634       5435551.453
10 0 59742  82200.000000  0      -2439349.078      -3992663.012       5292759.236
10 0 59742  82230.000000  0      -2574487.346      -4100391.132       5144580.437
10 0 59742  82260.000000  0      -2707485.375      -4203389.687       4991165.243
10 0 59742  82290.000000  0      -2838187.544      -4301563.801       4832669.198
10 0 59742  82320.000000  0      -2966440.120      -4394824.119       4669253.049
10 0 59742  82350.000000  0      -3092091.434      -4483086.893       4501082.593
10 0 59742  82380.000000  0      -3214992.065      -4566274.066       4328328.505
10 0 59742  82410.000000  0      -3334995.021      -4644313.338       4151166.173
10 0 59742  82440.000000  0      -3451955.911      -4717138.238       3969775.515
10 0 59742  82470.000000  0      -3565733.118      -4784688.178       3784340.806
10 0 59742  82500.000000  0      -3676187.971      -4846908.509       3595050.491
10 0 59742  82530.000000  0      -3783184.917      -4903750.572       3402097.000
10 0 59742  82560.000000  0      -3886591.689      -4955171.733       3205676.551
10 0 59742  82590.000000  0      -3986279.465      -5001135.423       3005988.953
10 0 59742  82620.000000  0      -4082123.039      -5041611.160       2803237.400
10 0 59742  82650.000000  0      -4174000.970      -5076574.575       2597628.268
10 0 59742  82680.000000  0      -4261795.742      -5106007.417       2389370.901
10 0 59742  82710.000000  0      -4345393.914      -5129897.566       2178677.393
10 0 59742  82740.000000  0      -4424686.265      -5148239.024       1965762.376
10 0 59742  82770.000000  0      -4499567.933      -5161031.910       1750842.792
99
